latitude,longitude,name,address
-74.49455101,39.45988455,Service Truck 1,Address1
-74.438,39.3643,Service Truck 2,Address2
-74.4359,39.3568,Service Truck 3,Address3
-74.44114868,39.35289556,Service Truck 4,Address4
-74.41712399,39.35992132,Service Truck 5,Address5
-74.4451,39.3515,Service Truck 6,Address6
-74.43674029,39.36082973,Service Truck 7,Address7
-74.57761977,40.65998294,Service Truck 8,Address8
-74.9333,39.7747,Service Truck 9,Address9
-74.70694212,40.13969653,Service Truck 10,Address10
-74.68888,40.60423,Service Truck 11,Address11
-74.619648,40.58891,Service Truck 12,Address12
-74.6166543,40.58681112,Service Truck 13,Address13
-75.12207464,39.94824308,Service Truck 14,Address14
-75.02115841,39.9392028,Service Truck 15,Address15
-75.02115177,39.93920332,Service Truck 16,Address16
-74.9996,39.9071,Service Truck 17,Address17
-74.9927597,39.91090775,Service Truck 18,Address18
-75.03081717,39.93447268,Service Truck 19,Address19
-74.997273,39.860037,Service Truck 20,Address20
-74.146805,40.879482,Service Truck 21,Address21
-74.14944204,40.84722233,Service Truck 22,Address22
-73.96084134,40.97245259,Service Truck 23,Address23
-74.5238,40.3118,Service Truck 24,Address24
-74.5266,40.3121,Service Truck 25,Address25
-74.9449,40.0205,Service Truck 26,Address26
-74.50320853,40.86424788,Service Truck 27,Address27
-74.47878464,40.8926626,Service Truck 28,Address28
-74.4002,40.4556,Service Truck 29,Address29
-74.36219381,40.80262292,Service Truck 30,Address30
-74.076862,40.806468,Service Truck 31,Address31
-73.98661923,40.81257165,Service Truck 32,Address32
-74.33625455,40.54423514,Service Truck 33,Address33
-74.346244,40.554999,Service Truck 34,Address34
-73.97421415,40.89359326,Service Truck 35,Address35
-74.921847,39.874548,Service Truck 36,Address36
-74.3907425,40.7882777,Service Truck 37,Address37
-74.2305642,39.81440894,Service Truck 38,Address38
-73.9694,40.8591,Service Truck 39,Address39
-73.97039648,40.84967262,Service Truck 40,Address40
-74.55489,40.4381,Service Truck 41,Address41
-74.27079,40.22573,Service Truck 42,Address42
-74.29092,40.257533,Service Truck 43,Address43
-74.30892387,40.24136219,Service Truck 44,Address44
-74.48151901,40.66964424,Service Truck 45,Address45
-74.13116869,40.96227175,Service Truck 46,Address46
-74.064949,40.887111,Service Truck 47,Address47
-75.031707,39.89782,Service Truck 48,Address48
-74.67170563,40.22973566,Service Truck 49,Address49
-74.69406,40.208775,Service Truck 50,Address50
-74.6581,39.4614,Service Truck 51,Address51
-74.7737,39.6218,Service Truck 52,Address52
-74.068698,40.858246,Service Truck 53,Address53
-74.6448425,40.50224655,Service Truck 54,Address54
-74.04057566,41.00347315,Service Truck 55,Address55
-74.02562108,40.75098111,Service Truck 56,Address56
-74.02998887,40.73668596,Service Truck 57,Address57
-74.22460828,40.13658896,Service Truck 58,Address58
-74.03719472,40.73134817,Service Truck 59,Address59
-74.033361,40.726553,Service Truck 60,Address60
-74.655023,40.234349,Service Truck 61,Address61
-74.25029749,40.61906639,Service Truck 62,Address62
-74.043031,40.854842,Service Truck 63,Address63
-74.31531308,40.79592359,Service Truck 64,Address64
-74.4054233,40.7527528,Service Truck 65,Address65
-74.305255,40.321407,Service Truck 66,Address66
-74.49931165,39.32986166,Service Truck 67,Address67
-74.308213,40.345396,Service Truck 68,Address68
-74.922116,39.868563,Service Truck 69,Address69
-74.9022,39.8773,Service Truck 70,Address70
-74.23505737,40.40863058,Service Truck 71,Address71
-74.646066,39.452007,Service Truck 72,Address72
-74.79657961,39.85109897,Service Truck 73,Address73
-74.13418319,40.41059506,Service Truck 74,Address74
-74.30732438,40.72401488,Service Truck 75,Address75
-74.42377649,40.44570071,Service Truck 76,Address76
-74.4383,40.4493,Service Truck 77,Address77
-75.039604,39.420616,Service Truck 78,Address78
-74.953397,39.652752,Service Truck 79,Address79
-74.22294732,40.81801364,Service Truck 80,Address80
-74.94479597,39.96473862,Service Truck 81,Address81
-74.464085,40.843421,Service Truck 82,Address82
-74.48141779,40.82197131,Service Truck 83,Address83
-74.87562776,39.94977646,Service Truck 84,Address84
-74.875264,39.949505,Service Truck 85,Address85
-74.79410262,40.00427112,Service Truck 86,Address86
-74.44415788,40.49604132,Service Truck 87,Address87
-74.17670133,40.74208864,Service Truck 88,Address88
-74.1748,40.705,Service Truck 89,Address89
-74.17142159,40.73683964,Service Truck 90,Address90
-74.02118475,40.8014908,Service Truck 91,Address91
-74.15618889,40.82291451,Service Truck 92,Address92
-74.04196728,40.26503349,Service Truck 93,Address93
-74.023,40.2637,Service Truck 94,Address94
-73.980141,41.015244,Service Truck 95,Address95
-74.07887936,40.91488902,Service Truck 96,Address96
-74.0656,40.9193,Service Truck 97,Address97
-74.0747,40.9581,Service Truck 98,Address98
-74.071776,40.94625515,Service Truck 99,Address99
-74.76659745,40.29628903,Service Truck 100,Address100
-75.4665,39.7067,Service Truck 101,Address101
-75.14565,40.679417,Service Truck 102,Address102
-74.43435656,40.55282752,Service Truck 103,Address103
-74.61974731,40.31358333,Service Truck 104,Address104
-74.65948823,40.34986179,Service Truck 105,Address105
-74.668543,40.306533,Service Truck 106,Address106
-74.14242325,41.05728918,Service Truck 107,Address107
-74.574631,40.828468,Service Truck 108,Address108
-74.06860322,40.35032783,Service Truck 109,Address109
-74.11524657,40.97906125,Service Truck 110,Address110
-74.8724,39.0186,Service Truck 111,Address111
-74.9623,40.0118,Service Truck 112,Address112
-74.5076,40.9272,Service Truck 113,Address113
-74.54807921,40.91232428,Service Truck 114,Address114
-74.5175,40.9083,Service Truck 115,Address115
-74.5176,40.9083,Service Truck 116,Address116
-74.326105,40.821636,Service Truck 117,Address117
-74.06191317,40.1393347,Service Truck 118,Address118
-74.04604664,40.78651902,Service Truck 119,Address119
-74.36384,40.73787,Service Truck 120,Address120
-74.062742,40.316525,Service Truck 121,Address121
-74.06292188,40.33326124,Service Truck 122,Address122
-74.991104,39.7405,Service Truck 123,Address123
-74.59494796,39.32938013,Service Truck 124,Address124
-74.594444,39.331823,Service Truck 125,Address125
-74.48727,40.513935,Service Truck 126,Address126
-74.5203582,40.52310559,Service Truck 127,Address127
-74.2771,40.4664,Service Truck 128,Address128
-74.26004576,40.74614414,Service Truck 129,Address129
-74.4338,40.5552,Service Truck 130,Address130
-74.35778,40.717085,Service Truck 131,Address131
-74.181596,39.981106,Service Truck 132,Address132
-74.63605204,40.17653532,Service Truck 133,Address133
-74.304278,40.688601,Service Truck 134,Address134
-74.2081135,40.83988985,Service Truck 135,Address135
-75.04032411,39.43112946,Service Truck 136,Address136
-74.494694,40.615685,Service Truck 137,Address137
-74.25738852,40.89177714,Service Truck 138,Address138
-74.26188661,40.89124858,Service Truck 139,Address139
-74.26948262,40.93790675,Service Truck 140,Address140
-74.22502599,40.95828306,Service Truck 141,Address141
-74.29798859,40.84878322,Service Truck 142,Address142
-74.0115,40.7885,Service Truck 143,Address143
-73.11861606,40.87766555,Service Truck 144,Address144
-73.91844,40.743412,Service Truck 145,Address145
-73.50180351,40.81012416,Service Truck 146,Address146
-76.172041,43.06924,Service Truck 147,Address147
-76.15537298,43.047619,Service Truck 148,Address148
-76.13506785,43.04168617,Service Truck 149,Address149
-73.827999,40.9502,Service Truck 150,Address150
-73.589964,40.719399,Service Truck 151,Address151
-75.999046,42.096616,Service Truck 152,Address152
-75.951029,42.092733,Service Truck 153,Address153
-77.4234,42.9922,Service Truck 154,Address154
-77.4173119,42.99969498,Service Truck 155,Address155
-73.910936,41.596042,Service Truck 156,Address156
-77.45254202,43.20980526,Service Truck 157,Address157
-73.956142,41.099391,Service Truck 158,Address158
-73.96037558,41.09935535,Service Truck 159,Address159
-73.953094,41.094448,Service Truck 160,Address160
-73.590775,40.747166,Service Truck 161,Address161
-73.59873072,40.74117681,Service Truck 162,Address162
-73.6190356,40.75662544,Service Truck 163,Address163
-73.59638204,40.74636052,Service Truck 164,Address164
-73.55330923,40.75590409,Service Truck 165,Address165
-75.4264,43.1063,Service Truck 166,Address166
-73.75824296,41.03255951,Service Truck 167,Address167
-73.76685583,41.03252195,Service Truck 168,Address168
-73.82944,40.781837,Service Truck 169,Address169
-78.697187,42.992296,Service Truck 170,Address170
-78.75052254,42.96196986,Service Truck 171,Address171
-73.46717854,40.81609581,Service Truck 172,Address172
-73.91040039,40.75276184,Service Truck 173,Address173
-73.82961844,40.9809506,Service Truck 174,Address174
-73.78067973,41.2734373,Service Truck 175,Address175
